{
    "links": {
        "self": "http://www.neowsapp.com/rest/v1/neo/3672192?api_key=iIulBulltgU6a56xZRHN4H3l9WmuAYTsLGpBGhQ2"
    },
    "id": "3672192",
    "neo_reference_id": "3672192",
    "name": "(2014 KO4)",
    "designation": "2014 KO4",
    "nasa_jpl_url": "http://ssd.jpl.nasa.gov/sbdb.cgi?sstr=3672192",
    "absolute_magnitude_h": 27.3,
    "estimated_diameter": {
        "kilometers": {
            "estimated_diameter_min": 0.0092162655,
            "estimated_diameter_max": 0.0206081961
        },
        "meters": {
            "estimated_diameter_min": 9.216265485,
            "estimated_diameter_max": 20.6081961232
        },
        "miles": {
            "estimated_diameter_min": 0.0057267201,
            "estimated_diameter_max": 0.0128053354
        },
        "feet": {
            "estimated_diameter_min": 30.2370924539,
            "estimated_diameter_max": 67.6121941689
        }
    },
    "is_potentially_hazardous_asteroid": false,
    "close_approach_data": [
        {
            "close_approach_date": "1977-04-04",
            "close_approach_date_full": "1977-Apr-04 14:45",
            "epoch_date_close_approach": 229013100000,
            "relative_velocity": {
                "kilometers_per_second": "13.1473670516",
                "kilometers_per_hour": "47330.5213858241",
                "miles_per_hour": "29409.3453577639"
            },
            "miss_distance": {
                "astronomical": "0.0678959793",
                "lunar": "26.4115359477",
                "kilometers": "10157093.884844091",
                "miles": "6311325.4799908158"
            },
            "orbiting_body": "Venus"
        },
        {
            "close_approach_date": "1977-04-28",
            "close_approach_date_full": "1977-Apr-28 21:19",
            "epoch_date_close_approach": 231110340000,
            "relative_velocity": {
                "kilometers_per_second": "11.0551445309",
                "kilometers_per_hour": "39798.5203112792",
                "miles_per_hour": "24729.2528011946"
            },
            "miss_distance": {
                "astronomical": "0.1845715573",
                "lunar": "71.7983357897",
                "kilometers": "27611511.834662951",
                "miles": "17156997.8734966838"
            },
            "orbiting_body": "Earth"
        },
        {
            "close_approach_date": "2014-05-18",
            "close_approach_date_full": "2014-May-18 16:20",
            "epoch_date_close_approach": 1400430000000,
            "relative_velocity": {
                "kilometers_per_second": "16.3320714084",
                "kilometers_per_hour": "58795.4570703358",
                "miles_per_hour": "36533.2105335095"
            },
            "miss_distance": {
                "astronomical": "0.0084780838",
                "lunar": "3.2979745982",
                "kilometers": "1268303.278161506",
                "miles": "788087.1129645428"
            },
            "orbiting_body": "Earth"
        },
        {
            "close_approach_date": "2017-11-02",
            "close_approach_date_full": "2017-Nov-02 09:26",
            "epoch_date_close_approach": 1509614760000,
            "relative_velocity": {
                "kilometers_per_second": "30.9529169174",
                "kilometers_per_hour": "111430.5009024704",
                "miles_per_hour": "69238.5798524267"
            },
            "miss_distance": {
                "astronomical": "0.4928778215",
                "lunar": "191.7294725635",
                "kilometers": "73733472.266640205",
                "miles": "45815855.157056629"
            },
            "orbiting_body": "Earth"
        }
    ],
    "orbital_data": {
        "orbit_id": "5",
        "orbit_determination_date": "2019-07-18 07:27:08",
        "first_observation_date": "2014-05-21",
        "last_observation_date": "2014-05-24",
        "data_arc_in_days": 3,
        "observations_used": 15,
        "orbit_uncertainty": "8",
        "minimum_orbit_intersection": ".00152035",
        "jupiter_tisserand_invariant": "4.326",
        "epoch_osculation": "2456800.5",
        "eccentricity": ".5603695083835786",
        "semi_major_axis": "1.51532406978539",
        "inclination": "3.048649850873751",
        "ascending_node_longitude": "235.3047012417595",
        "orbital_period": "681.3287409498325",
        "perihelion_distance": ".6661826657579473",
        "perihelion_argument": "274.4937728883487",
        "aphelion_distance": "2.364465473812832",
        "perihelion_time": "2456743.627779240311",
        "mean_anomaly": "30.05010392625662",
        "mean_motion": ".5283792952842825",
        "equinox": "J2000",
        "orbit_class": {
            "orbit_class_type": "APO",
            "orbit_class_description": "Near-Earth asteroid orbits which cross the Earth’s orbit similar to that of 1862 Apollo",
            "orbit_class_range": "a (semi-major axis) > 1.0 AU; q (perihelion) < 1.017 AU"
        }
    },
    "is_sentry_object": false
}